{
  "type": "FeatureCollection",
  "features": [
    {
      "type": "Feature",
      "properties": {
        "norad_id": 37836,
        "name": "EUTELSAT 16A",
        "group": "eutelsat",
        "lat": -0.07630536489291574,
        "lon": -91.06953246007836,
        "alt_km": 35761.085349137,
        "timestamp": "2025-12-10T11:33:53.062762+00:00",
        "meta_object_name": "EUTELSAT 16A",
        "meta_object_id": "2011-057A",
        "meta_epoch": "2025-12-09T22:11:38.730048",
        "meta_mean_motion": 1.00271206,
        "meta_eccentricity": 0.0005964,
        "meta_inclination": 0.0583,
        "meta_ra_of_asc_node": 3.1153,
        "meta_arg_of_pericenter": 259.8481,
        "meta_mean_anomaly": 164.8551,
        "meta_ephemeris_type": 0,
        "meta_classification_type": "U",
        "meta_norad_cat_id": 37836,
        "meta_element_set_no": 999,
        "meta_rev_at_epoch": 543,
        "meta_bstar": 0,
        "meta_mean_motion_dot": 1.07e-06,
        "meta_mean_motion_ddot": 0,
        "tle_line1": "1 37836U 11057A   25343.92475382  .00000107  00000+0  00000+0 0  9994",
        "tle_line2": "2 37836   0.0583   3.1153 0005964 259.8481 164.8551  1.00271206  5430"
      },
      "geometry": {
        "type": "Point",
        "coordinates": [
          -91.06953246007836,
          -0.07630536489291574
        ]
      }
    },
    {
      "type": "Feature",
      "properties": {
        "norad_id": 38992,
        "name": "EUTELSAT 21B",
        "group": "eutelsat",
        "lat": -0.08364312380359935,
        "lon": -85.47622951455685,
        "alt_km": 35772.37894087255,
        "timestamp": "2025-12-10T11:33:53.062774+00:00",
        "meta_object_name": "EUTELSAT 21B",
        "meta_object_id": "2012-062B",
        "meta_epoch": "2025-12-09T22:19:38.693280",
        "meta_mean_motion": 1.00271245,
        "meta_eccentricity": 0.0003282,
        "meta_inclination": 0.0662,
        "meta_ra_of_asc_node": 359.8596,
        "meta_arg_of_pericenter": 268.1334,
        "meta_mean_anomaly": 167.427,
        "meta_ephemeris_type": 0,
        "meta_classification_type": "U",
        "meta_norad_cat_id": 38992,
        "meta_element_set_no": 999,
        "meta_rev_at_epoch": 4793,
        "meta_bstar": 0,
        "meta_mean_motion_dot": 1.33e-06,
        "meta_mean_motion_ddot": 0,
        "tle_line1": "1 38992U 12062B   25343.93030895  .00000133  00000+0  00000+0 0  9991",
        "tle_line2": "2 38992   0.0662 359.8596 0003282 268.1334 167.4270  1.00271245 47936"
      },
      "geometry": {
        "type": "Point",
        "coordinates": [
          -85.47622951455685,
          -0.08364312380359935
        ]
      }
    },
    {
      "type": "Feature",
      "properties": {
        "norad_id": 39020,
        "name": "EUTELSAT 70B",
        "group": "eutelsat",
        "lat": -0.02351130497213819,
        "lon": -36.506800602801924,
        "alt_km": 35782.67951662906,
        "timestamp": "2025-12-10T11:33:53.062786+00:00",
        "meta_object_name": "EUTELSAT 70B",
        "meta_object_id": "2012-069A",
        "meta_epoch": "2025-12-10T00:45:38.639808",
        "meta_mean_motion": 1.00271694,
        "meta_eccentricity": 0.0004348,
        "meta_inclination": 0.0642,
        "meta_ra_of_asc_node": 339.7514,
        "meta_arg_of_pericenter": 264.3105,
        "meta_mean_anomaly": 276.8818,
        "meta_ephemeris_type": 0,
        "meta_classification_type": "U",
        "meta_norad_cat_id": 39020,
        "meta_element_set_no": 999,
        "meta_rev_at_epoch": 4761,
        "meta_bstar": 0,
        "meta_mean_motion_dot": -4.1e-07,
        "meta_mean_motion_ddot": 0,
        "tle_line1": "1 39020U 12069A   25344.03169722 -.00000041  00000+0  00000+0 0  9994",
        "tle_line2": "2 39020   0.0642 339.7514 0004348 264.3105 276.8818  1.00271694 47618"
      },
      "geometry": {
        "type": "Point",
        "coordinates": [
          -36.506800602801924,
          -0.02351130497213819
        ]
      }
    },
    {
      "type": "Feature",
      "properties": {
        "norad_id": 39122,
        "name": "EUTELSAT 117 WEST A",
        "group": "eutelsat",
        "lat": 0.017793720436147343,
        "lon": 136.09109549924938,
        "alt_km": 35793.743016457396,
        "timestamp": "2025-12-10T11:33:53.062801+00:00",
        "meta_object_name": "EUTELSAT 117 WEST A",
        "meta_object_id": "2013-012A",
        "meta_epoch": "2025-12-10T04:39:38.509344",
        "meta_mean_motion": 1.00270942,
        "meta_eccentricity": 0.0003036,
        "meta_inclination": 0.0128,
        "meta_ra_of_asc_node": 356.7068,
        "meta_arg_of_pericenter": 264.7569,
        "meta_mean_anomaly": 130.8158,
        "meta_ephemeris_type": 0,
        "meta_classification_type": "U",
        "meta_norad_cat_id": 39122,
        "meta_element_set_no": 999,
        "meta_rev_at_epoch": 4653,
        "meta_bstar": 0,
        "meta_mean_motion_dot": -1e-07,
        "meta_mean_motion_ddot": 0,
        "tle_line1": "1 39122U 13012A   25344.19419571 -.00000010  00000+0  00000+0 0  9999",
        "tle_line2": "2 39122   0.0128 356.7068 0003036 264.7569 130.8158  1.00270942 46535"
      },
      "geometry": {
        "type": "Point",
        "coordinates": [
          136.09109549924938,
          0.017793720436147343
        ]
      }
    },
    {
      "type": "Feature",
      "properties": {
        "norad_id": 39163,
        "name": "EUTELSAT 7B",
        "group": "eutelsat",
        "lat": -0.08196057690136721,
        "lon": -100.12983795403964,
        "alt_km": 35774.98213869505,
        "timestamp": "2025-12-10T11:33:53.062827+00:00",
        "meta_object_name": "EUTELSAT 7B",
        "meta_object_id": "2013-022A",
        "meta_epoch": "2025-12-10T00:54:38.687328",
        "meta_mean_motion": 1.00271909,
        "meta_eccentricity": 0.0004588,
        "meta_inclination": 0.0711,
        "meta_ra_of_asc_node": 16.0707,
        "meta_arg_of_pericenter": 299.1502,
        "meta_mean_anomaly": 144.4477,
        "meta_ephemeris_type": 0,
        "meta_classification_type": "U",
        "meta_norad_cat_id": 39163,
        "meta_element_set_no": 999,
        "meta_rev_at_epoch": 4606,
        "meta_bstar": 0,
        "meta_mean_motion_dot": 5.1e-07,
        "meta_mean_motion_ddot": 0,
        "tle_line1": "1 39163U 13022A   25344.03794777  .00000051  00000+0  00000+0 0  9996",
        "tle_line2": "2 39163   0.0711  16.0707 0004588 299.1502 144.4477  1.00271909 46063"
      },
      "geometry": {
        "type": "Point",
        "coordinates": [
          -100.12983795403964,
          -0.08196057690136721
        ]
      }
    },
    {
      "type": "Feature",
      "properties": {
        "norad_id": 39612,
        "name": "EXPRESS-AT1",
        "group": "eutelsat",
        "lat": -0.001770481148911446,
        "lon": -51.07721811883658,
        "alt_km": 35787.015087023945,
        "timestamp": "2025-12-10T11:33:53.062850+00:00",
        "meta_object_name": "EXPRESS-AT1",
        "meta_object_id": "2014-010A",
        "meta_epoch": "2025-12-10T00:53:38.582304",
        "meta_mean_motion": 1.0027054,
        "meta_eccentricity": 5.76e-05,
        "meta_inclination": 0.0121,
        "meta_ra_of_asc_node": 290.9998,
        "meta_arg_of_pericenter": 272.8151,
        "meta_mean_anomaly": 304.608,
        "meta_ephemeris_type": 0,
        "meta_classification_type": "U",
        "meta_norad_cat_id": 39612,
        "meta_element_set_no": 999,
        "meta_rev_at_epoch": 4292,
        "meta_bstar": 0,
        "meta_mean_motion_dot": 8.2e-07,
        "meta_mean_motion_ddot": 0,
        "tle_line1": "1 39612U 14010A   25344.03725211  .00000082  00000+0  00000+0 0  9994",
        "tle_line2": "2 39612   0.0121 290.9998 0000576 272.8151 304.6080  1.00270540 42924"
      },
      "geometry": {
        "type": "Point",
        "coordinates": [
          -51.07721811883658,
          -0.001770481148911446
        ]
      }
    },
    {
      "type": "Feature",
      "properties": {
        "norad_id": 39613,
        "name": "EXPRESS-AT2",
        "group": "eutelsat",
        "lat": 0.030618326150250143,
        "lon": 32.80891802032529,
        "alt_km": 35787.2175184952,
        "timestamp": "2025-12-10T11:33:53.062864+00:00",
        "meta_object_name": "EXPRESS-AT2",
        "meta_object_id": "2014-010B",
        "meta_epoch": "2025-12-10T03:41:38.473728",
        "meta_mean_motion": 1.00272415,
        "meta_eccentricity": 0.0001553,
        "meta_inclination": 0.0173,
        "meta_ra_of_asc_node": 331.4416,
        "meta_arg_of_pericenter": 320.3324,
        "meta_mean_anomaly": 342.636,
        "meta_ephemeris_type": 0,
        "meta_classification_type": "U",
        "meta_norad_cat_id": 39613,
        "meta_element_set_no": 999,
        "meta_rev_at_epoch": 4260,
        "meta_bstar": 0,
        "meta_mean_motion_dot": -2.78e-06,
        "meta_mean_motion_ddot": 0,
        "tle_line1": "1 39613U 14010B   25344.15391752 -.00000278  00000+0  00000+0 0  9995",
        "tle_line2": "2 39613   0.0173 331.4416 0001553 320.3324 342.6360  1.00272415 42606"
      },
      "geometry": {
        "type": "Point",
        "coordinates": [
          32.80891802032529,
          0.030618326150250143
        ]
      }
    }
  ]
}